GLOBALSTAR M035         
1 25851U 99037A   25343.40564616 -.00000070  00000+0 -25535-3 0  9999
2 25851  51.9982  24.2090 0013503 264.4949 108.0880 11.04540613115629
GLOBALSTAR M032         
1 25852U 99037B   25343.58450053 -.00000020  00000+0  14905-2 0  9990
2 25852  51.9925 196.9112 0013684  99.9226 260.3119 11.19075165154427
GLOBALSTAR M051         
1 25853U 99037C   25343.42995364 -.00000107  00000+0 -85633-3 0  9997
2 25853  51.9822 338.1388 0000107 120.6023 239.4798 11.42204190152417
GLOBALSTAR M030         
1 25854U 99037D   25343.66207029 -.00000069  00000+0  13390-3 0  9995
2 25854  51.9857 132.5240 0003324  23.8609 336.2362 11.55109949170320
GLOBALSTAR M048         
1 25872U 99041A   25343.57529628 -.00000035  00000+0  94099-3 0  9990
2 25872  51.9380 279.6037 0013310 125.1474  45.4383 11.33860774144879
GLOBALSTAR M026         
1 25873U 99041B   25343.43146414 -.00000014  00000+0  18355-2 0  9991
2 25873  51.9976 140.2601 0001903 161.9554 223.3716 11.06848848167895
GLOBALSTAR M043         
1 25874U 99041C   25343.47334801 -.00000050  00000+0  53395-3 0  9999
2 25874  51.9431  34.4716 0013454 247.6151 216.6153 11.25696409142610
GLOBALSTAR M028         
1 25875U 99041D   25343.42624654 -.00000043  00000+0  37565-3 0  9996
2 25875  51.9645  30.5277 0063624  92.3094 268.5054 12.50592599212104
